LEMUR-2-FURIAUS         
1 42840U 17042R   26068.96143223  .00025928  00000+0  99966-3 0  9991
2 42840  97.3753 248.4990 0007537  55.8686 304.3266 15.26272951473053
STARLINK-32578          
1 61979U 24210W   26067.32557356  .00042418  00000+0  15409-2 0  9997
2 61979  42.9997 187.3287 0000726 232.2096 127.8690 15.27606556 74714
